ONEWEB-0545             
1 54647U 22166F   25330.85397034 -.00000009  00000+0 -54314-4 0  9996
2 54647  87.9201 284.3442 0001915  95.3068 264.8285 13.21827338144775
ONEWEB-0580             
1 54648U 22166G   25330.82764519  .00000163  00000+0  36328-3 0  9993
2 54648  87.9204 284.3482 0001679  90.6104 269.5223 13.21823368144817
ONEWEB-0582             
1 54649U 22166H   25330.87042428  .00000008  00000+0 -12999-4 0  9995
2 54649  87.9202 284.3329 0001693  96.8502 263.2825 13.21823416144792
ONEWEB-0583             
1 54650U 22166J   25330.88194212  .00000040  00000+0  65839-4 0  9993
2 54650  87.9203 284.3558 0001925  85.4716 274.6638 13.21823505144807
ONEWEB-0584             
1 54651U 22166K   25330.82599284 -.00000030  00000+0 -10465-3 0  9991
2 54651  87.9203 284.3525 0001579  89.1900 270.9415 13.21828008144785
ONEWEB-0585             
1 54652U 22166L   25330.85069573  .00000046  00000+0  79264-4 0  9996
2 54652  87.9202 284.3325 0001916  77.0445 283.0902 13.21825971144791
ONEWEB-0586             
1 54653U 22166M   25330.86385341 -.00000019  00000+0 -77565-4 0  9996
2 54653  87.9199 284.3553 0001805  85.8425 274.2915 13.21823596144799
ONEWEB-0587             
1 54654U 22166N   25330.87372477  .00000054  00000+0  98606-4 0  9990
2 54654  87.9211 284.3077 0002013  69.4636 290.6714 13.21823723144959
